[{"OBJECT_NAME":"ONEWEB-0651","OBJECT_ID":"2023-043AL","EPOCH":"2026-03-09T22:35:56.177088","MEAN_MOTION":13.15547957,"ECCENTRICITY":0.0001341,"INCLINATION":87.8936,"RA_OF_ASC_NODE":279.0408,"ARG_OF_PERICENTER":84.5334,"MEAN_ANOMALY":275.5949,"EPHEMERIS_TYPE":0,"CLASSIFICATION_TYPE":"U","NORAD_CAT_ID":56080,"ELEMENT_SET_NO":999,"REV_AT_EPOCH":14457,"BSTAR":0.0002873304,"MEAN_MOTION_DOT":1.21e-6,"MEAN_MOTION_DDOT":0},{"OBJECT_NAME":"CZ-4C R\/B","OBJECT_ID":"2009-072C","EPOCH":"2026-03-09T22:46:59.894976","MEAN_MOTION":13.46231136,"ECCENTRICITY":0.01569604,"INCLINATION":100.5126,"RA_OF_ASC_NODE":93.9284,"ARG_OF_PERICENTER":182.9065,"MEAN_ANOMALY":239.8284,"EPHEMERIS_TYPE":0,"CLASSIFICATION_TYPE":"U","NORAD_CAT_ID":36123,"ELEMENT_SET_NO":999,"REV_AT_EPOCH":79755,"BSTAR":0.00011437348,"MEAN_MOTION_DOT":2.5e-7,"MEAN_MOTION_DDOT":0}]
